STARLINK-5688           
1 55479U 23015AG  26196.65512823  .00000801  00000+0  38625-4 0  9993
2 55479  43.0044 318.9242 0001600 290.1631  69.9049 15.27573929190372
STARLINK-5690           
1 55480U 23015AH  26196.43615242  .00000436  00000+0  25396-4 0  9995
2 55480  43.0081 338.1086 0001708 272.8032  87.2624 15.27569992190137
STARLINK-5694           
1 55481U 23015AJ  26196.78108040  .00000450  00000+0  25894-4 0  9996
2 55481  43.0045 336.4791 0001476 267.5243  92.5440 15.27576073190187
STARLINK-5692           
1 55483U 23015AL  26196.75923426  .00000090  00000+0  12786-4 0  9994
2 55483  43.0022 336.3155 0001493 271.3012  88.7669 15.27577445190187
STARLINK-5696           
1 55484U 23015AM  26196.72597513  .00000392  00000+0  23768-4 0  9993
2 55484  43.0043 336.9199 0001813 298.7425  61.3244 15.27577225190173
STARLINK-5695           
1 55485U 23015AN  26196.72340776  .00001176  00000+0  52254-4 0  9994
2 55485  43.0041 336.8996 0001952 270.2723  89.7905 15.27573888190175
STARLINK-5704           
1 55486U 23015AP  26196.71954468  .00000246  00000+0  18464-4 0  9995
2 55486  43.0058 336.8240 0002112 277.8343  82.2269 15.27577585190175
STARLINK-5701           
1 55487U 23015AQ  26196.77337409  .00000299  00000+0  20384-4 0  9994
2 55487  43.0040 336.4185 0001137 260.9981  99.0742 15.27568192190185
STARLINK-5706           
1 55488U 23015AR  26196.44388495  .00000103  00000+0  13273-4 0  9993
2 55488  43.0049 338.2374 0001120 249.5233 110.5499 15.27561579190135
STARLINK-5371           
1 55489U 23015AS  26196.45029641 -.00000655  00000+0 -14276-4 0  9998
2 55489  42.9998 338.2883 0001450 217.6196 142.4554 15.27577798190138
STARLINK-5373           
1 55490U 23015AT  26196.75152602 -.00000142  00000+0  43556-5 0  9991
2 55490  43.0033 336.2436 0001063 275.9381  84.1350 15.27576707190187
STARLINK-5364           
1 55491U 23015AU  26196.37944417 -.00000124  00000+0  50065-5 0  9996
2 55491  43.0028 320.2815 0000858 250.7817 109.2942 15.27575368190337
STARLINK-5013           
1 55492U 23015AV  26196.77593746  .00000154  00000+0  15133-4 0  9994
2 55492  43.0038 336.4207 0001497 272.1356  87.9324 15.27574961190186
STARLINK-5362           
1 55493U 23015AW  26196.42973760 -.00000376  00000+0 -41521-5 0  9994
2 55493  43.0032 338.1342 0000915 258.6009 101.4740 15.27573871190136
STARLINK-5344           
1 55494U 23015AX  26196.77851235  .00000029  00000+0  10577-4 0  9994
2 55494  43.0047 336.4496 0001875 273.6555  86.4082 15.27576078190181
STARLINK-5100           
1 55495U 23015AY  26196.64741837  .00000486  00000+0  27196-4 0  9999
2 55495  43.0039 318.8708 0001323 275.3307  84.7393 15.27573970190370
STARLINK-5363           
1 55497U 23015BA  26196.45542864  .00000777  00000+0  37752-4 0  9991
2 55497  43.0041 338.3165 0001314 245.1186 114.9529 15.27576354190139
STARLINK-5365           
1 55498U 23015BB  26196.46572094  .00001084  00000+0  48920-4 0  9992
2 55498  43.0053 338.3947 0001731 270.8257  89.2396 15.27567575190139
STARLINK-5366           
1 55499U 23015BC  26196.68099722 -.00000296  00000+0 -12443-5 0  9997
2 55499  43.0014 336.5717 0001124 285.5077  74.5650 15.27578039190925
STARLINK-5141           
1 55500U 23015BD  26196.78622051 -.00003198  00000+0 -10666-3 0  9995
2 55500  43.0041 336.5044 0002004 273.0253  87.0369 15.27593099190184
STARLINK-5367           
1 55501U 23015BE  26196.66958295  .00000310  00000+0  20777-4 0  9991
2 55501  43.0016 337.3314 0001401 268.5366  91.5325 15.27576462190165
ELEKTRO-L 4             
1 55506U 23016A   26196.72396218 -.00000069  00000+0  00000+0 0  9999
2 55506   0.1191 278.1881 0001506 255.5578 186.2359  1.00270581 12628
AMAZONAS NEXUS          
1 55508U 23017A   26194.76278008 -.00000287  00000+0  00000+0 0  9992
2 55508   0.0356  42.7695 0004364  42.6416  59.8176  1.00268939  7317
STARLINK-5749           
1 55569U 23020A   26196.74154171  .00000384  00000+0  23478-4 0  9993
2 55569  43.0019   5.6988 0001638 269.1628  90.9036 15.27577428189527
STARLINK-5737           
1 55570U 23020B   26196.92405957  .00000044  00000+0  11113-4 0  9992
2 55570  43.0045   1.0879 0001654 274.3510  85.7153 15.27585835188525
STARLINK-5739           
1 55571U 23020C   26196.45944088 -.00000378  00000+0 -42120-5 0  9999
2 55571  43.0035   7.0304 0001221 294.6099  65.4626 15.27584301188416
STARLINK-5732           
1 55572U 23020D   26196.84918694 -.00000516  00000+0 -92292-5 0  9996
2 55572  43.0031   4.7921 0001312 234.6396 125.4333 15.27574832188473
STARLINK-5738           
1 55573U 23020E   26197.17226455 -.00000298  00000+0 -13194-5 0  9992
2 55573  43.0055   2.9203 0001315 267.7112  92.3589 15.27575054188527
STARLINK-5747           
1 55574U 23020F   26196.81463834  .00000338  00000+0  21831-4 0  9996
2 55574  43.0022   5.3896 0001746 253.7002 106.3658 15.27575054188464
STARLINK-5745           
1 55575U 23020G   26197.18512299  .00001820  00000+0  75675-4 0  9990
2 55575  43.0052   3.0150 0001697 268.5800  91.4858 15.27575574188521
