OBJECT_NAME,OBJECT_ID,EPOCH,MEAN_MOTION,ECCENTRICITY,INCLINATION,RA_OF_ASC_NODE,ARG_OF_PERICENTER,MEAN_ANOMALY,EPHEMERIS_TYPE,CLASSIFICATION_TYPE,NORAD_CAT_ID,ELEMENT_SET_NO,REV_AT_EPOCH,BSTAR,MEAN_MOTION_DOT,MEAN_MOTION_DDOT
STARLINK-5688,2023-015AG,2026-07-15T15:43:23.079072,15.27573929,.00016003,43.0044,318.9242,290.1631,69.9049,0,U,55479,999,19037,.38624516E-4,.801E-5,0
STARLINK-5690,2023-015AH,2026-07-15T10:28:03.569088,15.27569992,.00017084,43.0081,338.1086,272.8032,87.2624,0,U,55480,999,19013,.25396236E-4,.436E-5,0
STARLINK-5694,2023-015AJ,2026-07-15T18:44:45.346560,15.27576073,.00014763,43.0045,336.4791,267.5243,92.5440,0,U,55481,999,19018,.2589381E-4,.45E-5,0
STARLINK-5692,2023-015AL,2026-07-15T18:13:17.840064,15.27577445,.00014933,43.0022,336.3155,271.3012,88.7669,0,U,55483,999,19018,.1278617E-4,.9E-6,0
STARLINK-5696,2023-015AM,2026-07-15T17:25:24.251232,15.27577225,.00018138,43.0043,336.9199,298.7425,61.3244,0,U,55484,999,19017,.23768392E-4,.392E-5,0
STARLINK-5695,2023-015AN,2026-07-15T17:21:42.430464,15.27573888,.00019527,43.0041,336.8996,270.2723,89.7905,0,U,55485,999,19017,.52254471E-4,.1176E-4,0
STARLINK-5704,2023-015AP,2026-07-15T17:16:08.660352,15.27577585,.00021129,43.0058,336.8240,277.8343,82.2269,0,U,55486,999,19017,.18463862E-4,.246E-5,0
STARLINK-5701,2023-015AQ,2026-07-15T18:33:39.521376,15.27568192,.00011377,43.0040,336.4185,260.9981,99.0742,0,U,55487,999,19018,.20384453E-4,.299E-5,0
STARLINK-5706,2023-015AR,2026-07-15T10:39:11.659680,15.27561579,.00011203,43.0049,338.2374,249.5233,110.5499,0,U,55488,999,19013,.13272838E-4,.103E-5,0
STARLINK-5371,2023-015AS,2026-07-15T10:48:25.609824,15.27577798,.00014505,42.9998,338.2883,217.6196,142.4554,0,U,55489,999,19013,-.14276261E-4,-.655E-5,0
STARLINK-5373,2023-015AT,2026-07-15T18:02:11.848128,15.27576707,.00010632,43.0033,336.2436,275.9381,84.1350,0,U,55490,999,19018,.4355596E-5,-.142E-5,0
STARLINK-5364,2023-015AU,2026-07-15T09:06:23.976288,15.27575368,.0000858,43.0028,320.2815,250.7817,109.2942,0,U,55491,999,19033,.5006507E-5,-.124E-5,0
STARLINK-5013,2023-015AV,2026-07-15T18:37:20.996544,15.27574961,.00014979,43.0038,336.4207,272.1356,87.9324,0,U,55492,999,19018,.15132576E-4,.154E-5,0
STARLINK-5362,2023-015AW,2026-07-15T10:18:49.328640,15.27573871,.00009157,43.0032,338.1342,258.6009,101.4740,0,U,55493,999,19013,-.4152141E-5,-.376E-5,0
STARLINK-5344,2023-015AX,2026-07-15T18:41:03.467040,15.27576078,.00018754,43.0047,336.4496,273.6555,86.4082,0,U,55494,999,19018,.10576708E-4,.29E-6,0
STARLINK-5100,2023-015AY,2026-07-15T15:32:16.947168,15.27573970,.0001323,43.0039,318.8708,275.3307,84.7393,0,U,55495,999,19037,.27196E-4,.486E-5,0
STARLINK-5363,2023-015BA,2026-07-15T10:55:49.034496,15.27576354,.00013144,43.0041,338.3165,245.1186,114.9529,0,U,55497,999,19013,.37752189E-4,.777E-5,0
STARLINK-5365,2023-015BB,2026-07-15T11:10:38.289216,15.27567575,.0001731,43.0053,338.3947,270.8257,89.2396,0,U,55498,999,19013,.48919522E-4,.1084E-4,0
STARLINK-5366,2023-015BC,2026-07-15T16:20:38.159808,15.27578039,.00011245,43.0014,336.5717,285.5077,74.5650,0,U,55499,999,19092,-.1244328E-5,-.296E-5,0
STARLINK-5141,2023-015BD,2026-07-15T18:52:09.452064,15.27593099,.00020047,43.0041,336.5044,273.0253,87.0369,0,U,55500,999,19018,-.10666158E-3,-.3198E-4,0
STARLINK-5367,2023-015BE,2026-07-15T16:04:11.966880,15.27576462,.00014014,43.0016,337.3314,268.5366,91.5325,0,U,55501,999,19016,.20777302E-4,.31E-5,0
ELEKTRO-L 4,2023-016A,2026-07-15T17:22:30.332352,1.00270581,.0001506,0.1191,278.1881,255.5578,186.2359,0,U,55506,999,1262,0,-.69E-6,0
AMAZONAS NEXUS,2023-017A,2026-07-13T18:18:24.198912,1.00268939,.00043642,0.0356,42.7695,42.6416,59.8176,0,U,55508,999,731,0,-.287E-5,0
STARLINK-5749,2023-020A,2026-07-15T17:47:49.203744,15.27577428,.00016388,43.0019,5.6988,269.1628,90.9036,0,U,55569,999,18952,.23478361E-4,.384E-5,0
STARLINK-5737,2023-020B,2026-07-15T22:10:38.746848,15.27585835,.0001654,43.0045,1.0879,274.3510,85.7153,0,U,55570,999,18852,.11113E-4,.44E-6,0
STARLINK-5739,2023-020C,2026-07-15T11:01:35.692032,15.27584301,.00012219,43.0035,7.0304,294.6099,65.4626,0,U,55571,999,18841,-.4212035E-5,-.378E-5,0
STARLINK-5732,2023-020D,2026-07-15T20:22:49.751616,15.27574832,.0001312,43.0031,4.7921,234.6396,125.4333,0,U,55572,999,18847,-.92292E-5,-.516E-5,0
STARLINK-5738,2023-020E,2026-07-16T04:08:03.657120,15.27575054,.0001315,43.0055,2.9203,267.7112,92.3589,0,U,55573,999,18852,-.13194E-5,-.298E-5,0
STARLINK-5747,2023-020F,2026-07-15T19:33:04.752576,15.27575054,.00017466,43.0022,5.3896,253.7002,106.3658,0,U,55574,999,18846,.21830829E-4,.338E-5,0
STARLINK-5745,2023-020G,2026-07-16T04:26:34.626336,15.27575574,.0001697,43.0052,3.0150,268.5800,91.4858,0,U,55575,999,18852,.75675E-4,.182E-4,0
